[{"OBJECT_NAME":"YAOGAN-39 02A","OBJECT_ID":"2023-145A","EPOCH":"2026-03-09T13:29:31.975296","MEAN_MOTION":15.23019263,"ECCENTRICITY":0.0002832,"INCLINATION":35.0023,"RA_OF_ASC_NODE":106.9754,"ARG_OF_PERICENTER":165.4765,"MEAN_ANOMALY":194.6032,"EPHEMERIS_TYPE":0,"CLASSIFICATION_TYPE":"U","NORAD_CAT_ID":57886,"ELEMENT_SET_NO":999,"REV_AT_EPOCH":13797,"BSTAR":0.00057738,"MEAN_MOTION_DOT":0.00013907,"MEAN_MOTION_DDOT":0},{"OBJECT_NAME":"HERMES-5","OBJECT_ID":"2025-052BQ","EPOCH":"2026-03-09T22:33:51.245280","MEAN_MOTION":15.26210393,"ECCENTRICITY":0.0006071,"INCLINATION":97.4082,"RA_OF_ASC_NODE":324.1247,"ARG_OF_PERICENTER":124.4334,"MEAN_ANOMALY":235.7479,"EPHEMERIS_TYPE":0,"CLASSIFICATION_TYPE":"U","NORAD_CAT_ID":63834,"ELEMENT_SET_NO":999,"REV_AT_EPOCH":5480,"BSTAR":0.00068450239,"MEAN_MOTION_DOT":0.00017673,"MEAN_MOTION_DDOT":0}]
